H1 CPF 01  gfz 2021 12 03 13  8372 terrasarx 
H2 0702601  6201 31698    2021 12 03 12 59 42 2021 12 08 00 00 42   120 1 1  0 0 0
H9
10 0 59555  15822.000000  0    2614452.324   2053413.168   6023160.236
10 0 59555  15942.000000  0    3366932.749   2288571.518   5547075.720
10 0 59555  16062.000000  0    4064270.810   2471075.359   4973429.360
10 0 59555  16182.000000  0    4693320.441   2598800.526   4312275.823
10 0 59555  16302.000000  0    5242094.792   2670799.711   3575221.819
10 0 59555  16422.000000  0    5700005.462   2687299.933   2775223.568
10 0 59555  16542.000000  0    6058072.754   2649674.178   1926357.772
10 0 59555  16662.000000  0    6309110.357   2560390.519   1043571.748
10 0 59555  16782.000000  0    6447875.719   2422936.974    142413.306
10 0 59555  16902.000000  0    6471180.932   2241724.715   -761252.317
10 0 59555  17022.000000  0    6377960.482   2021971.614  -1651530.598
10 0 59555  17142.000000  0    6169299.349   1769571.111  -2512783.366
10 0 59555  17262.000000  0    5848418.106   1490948.045  -3329911.254
10 0 59555  17382.000000  0    5420613.988   1192904.835  -4088622.191
10 0 59555  17502.000000  0    4893161.170    882463.169  -4775681.630
10 0 59555  17622.000000  0    4275174.146    566705.757  -5379138.433
10 0 59555  17742.000000  0    3577439.779    252621.287  -5888524.723
10 0 59555  17862.000000  0    2812220.632    -53043.865  -6295027.887
10 0 59555  17982.000000  0    1993033.364   -343924.722  -6591631.769
10 0 59555  18102.000000  0    1134409.236   -614165.089  -6773226.276
10 0 59555  18222.000000  0     251638.361   -858531.199  -6836687.517
10 0 59555  18342.000000  0    -639498.766  -1072509.153  -6780924.488
10 0 59555  18462.000000  0   -1523006.075  -1252385.682  -6606895.616
10 0 59555  18582.000000  0   -2382952.867  -1395311.236  -6317594.535
10 0 59555  18702.000000  0   -3203754.694  -1499344.241  -5918002.855
10 0 59555  18822.000000  0   -3970450.461  -1563476.488  -5415014.320
10 0 59555  18942.000000  0   -4668975.907  -1587639.378  -4817327.952
10 0 59555  19062.000000  0   -5286425.188  -1572689.947  -4135308.466
10 0 59555  19182.000000  0   -5811296.282  -1520377.183  -3380817.259
10 0 59555  19302.000000  0   -6233715.823  -1433289.077  -2567013.946
10 0 59555  19422.000000  0   -6545636.461  -1314780.680  -1708130.931
10 0 59555  19542.000000  0   -6741002.067  -1168884.918   -819225.205
10 0 59555  19662.000000  0   -6815876.411  -1000207.888     84089.102
10 0 59555  19782.000000  0   -6768530.050   -813810.074    985921.598
10 0 59555  19902.000000  0   -6599483.290   -615078.258   1870393.364
10 0 59555  20022.000000  0   -6311503.668   -409590.680   2721925.696
10 0 59555  20142.000000  0   -5909558.143   -202978.578   3525523.140
10 0 59555  20262.000000  0   -5400720.452      -787.712   4267044.605
10 0 59555  20382.000000  0   -4794036.630    191655.588   4933455.764
10 0 59555  20502.000000  0   -4100353.840    369371.511   5513057.714
10 0 59555  20622.000000  0   -3332117.410    527844.164   5995689.880
10 0 59555  20742.000000  0   -2503138.641    663125.735   6372903.975
10 0 59555  20862.000000  0   -1628340.022    771925.705   6638106.327
10 0 59555  20982.000000  0    -723481.650    851684.486   6786667.125
10 0 59555  21102.000000  0     195124.069    900629.044   6815994.976
10 0 59555  21222.000000  0    1110905.621    917809.882   6725578.799
10 0 59555  21342.000000  0    2007329.971    903119.457   6516996.329
10 0 59555  21462.000000  0    2868199.922    857291.115   6193888.580
10 0 59555  21582.000000  0    3677947.561    781878.556   5761901.114
10 0 59555  21702.000000  0    4421918.627    679216.471   5228590.371
10 0 59555  21822.000000  0    5086641.850    552362.440   4603298.044
10 0 59555  21942.000000  0    5660081.042    405020.985   3896994.144
10 0 59555  22062.000000  0    6131863.414    241452.734   3122087.649
10 0 59555  22182.000000  0    6493477.296     66369.857   2292208.204
10 0 59555  22302.000000  0    6738434.549   -115181.730   1421964.717
10 0 59555  22422.000000  0    6862395.864   -297948.451    526683.446
10 0 59555  22542.000000  0    6863252.978   -476600.360   -377869.361
10 0 59555  22662.000000  0    6741165.898   -645865.637  -1275774.737
10 0 59555  22782.000000  0    6498553.630   -800663.937  -2151249.827
10 0 59555  22902.000000  0    6140039.521   -936235.053  -2988932.806
10 0 59555  23022.000000  0    5672353.240  -1048259.958  -3774156.924
10 0 59555  23142.000000  0    5104192.480  -1132970.866  -4493208.625
10 0 59555  23262.000000  0    4446048.767  -1187247.457  -5133564.163
10 0 59555  23382.000000  0    3710002.971  -1208698.215  -5684101.778
10 0 59555  23502.000000  0    2909494.077  -1195725.469  -6135286.032
10 0 59555  23622.000000  0    2059067.958  -1147571.751  -6479321.756
10 0 59555  23742.000000  0    1174111.191  -1064346.784  -6710277.678
10 0 59555  23862.000000  0     270574.337   -947036.813  -6824178.470
10 0 59555  23982.000000  0    -635311.205   -797494.539  -6819065.745
10 0 59555  24102.000000  0   -1527317.925   -618410.406  -6695027.817
10 0 59555  24222.000000  0   -2389506.697   -413265.186  -6454198.397
10 0 59555  24342.000000  0   -3206505.046   -186264.925  -6100722.508
10 0 59555  24462.000000  0   -3963775.780     57740.894  -5640693.537
10 0 59555  24582.000000  0   -4647875.850    313357.301  -5082059.046
10 0 59555  24702.000000  0   -5246697.532    574755.613  -4434494.627
10 0 59555  24822.000000  0   -5749690.455    835798.282  -3709248.502
10 0 59555  24942.000000  0   -6148058.236   1090174.813  -2918955.024
10 0 59555  25062.000000  0   -6434924.570   1331545.045  -2077420.438
10 0 59555  25182.000000  0   -6605464.588   1553686.348  -1199384.095
10 0 59555  25302.000000  0   -6656998.560   1750642.567   -300258.386
10 0 59555  25422.000000  0   -6589042.192   1916868.757    604148.383
10 0 59555  25542.000000  0   -6403312.543   2047369.347   1497917.099
10 0 59555  25662.000000  0   -6103690.554   2137826.669   2365306.713
10 0 59555  25782.000000  0   -5696139.364   2184715.628   3191040.556
10 0 59555  25902.000000  0   -5188580.785   2185400.756   3960583.280
10 0 59555  26022.000000  0   -4590733.018   2138213.736   4660401.436
10 0 59555  26142.000000  0   -3913915.626   2042510.159   5278202.428
10 0 59555  26262.000000  0   -3170827.202   1898704.433   5803148.905
10 0 59555  26382.000000  0   -2375299.498   1708282.489   6226046.455
10 0 59555  26502.000000  0   -1542032.439   1473790.947   6539499.486
10 0 59555  26622.000000  0    -686317.720   1198803.453   6738033.603
10 0 59555  26742.000000  0     176242.963    887865.768   6818184.158
10 0 59555  26862.000000  0    1030021.450    546420.081   6778552.708
10 0 59555  26982.000000  0    1859644.934    180710.030   6619829.733
10 0 59555  27102.000000  0    2650271.410   -202332.560   6344783.964
10 0 59555  27222.000000  0    3387855.565   -595218.077   5958218.445
10 0 59555  27342.000000  0    4059400.975   -990043.758   5466891.617
10 0 59555  27462.000000  0    4653193.273  -1378651.254   4879405.000
10 0 59555  27582.000000  0    5159010.587  -1752793.643   4206058.801
10 0 59555  27702.000000  0    5568308.386  -2104308.299   3458676.109
10 0 59555  27822.000000  0    5874373.001  -2425293.323   2650396.784
10 0 59555  27942.000000  0    6072439.211  -2708282.574   1795445.234
10 0 59555  28062.000000  0    6159770.582  -2946414.529    908877.020
10 0 59555  28182.000000  0    6135699.979  -3133591.948      6306.744
10 0 59555  28302.000000  0    6001627.171  -3264626.912   -896375.109
10 0 59555  28422.000000  0    5760975.118  -3335368.059  -1783291.955
10 0 59555  28542.000000  0    5419103.716  -3342805.696  -2638868.363
10 0 59555  28662.000000  0    4983187.289  -3285153.698  -3448109.137
10 0 59555  28782.000000  0    4462057.112  -3161905.902  -4196865.038
10 0 59555  28902.000000  0    3866014.233  -2973866.553  -4872079.618
10 0 59555  29022.000000  0    3206616.582  -2723152.954  -5462012.330
10 0 59555  29142.000000  0    2496448.104  -2413172.005  -5956433.280
10 0 59555  29262.000000  0    1748875.950  -2048573.112  -6346790.370
10 0 59555  29382.000000  0     977797.484  -1635176.147  -6626348.056
10 0 59555  29502.000000  0     197382.528  -1179876.045  -6790292.490
10 0 59555  29622.000000  0    -578183.018   -690528.053  -6835804.962
10 0 59555  29742.000000  0   -1334948.974   -175814.511  -6762104.481
10 0 59555  29862.000000  0   -2059446.253    354905.724  -6570459.454
10 0 59555  29982.000000  0   -2738920.939    891762.980  -6264167.398
10 0 59555  30102.000000  0   -3361554.142   1424555.357  -5848504.582
10 0 59555  30222.000000  0   -3916666.441   1942937.954  -5330645.578
10 0 59555  30342.000000  0   -4394904.358   2436620.656  -4719551.249
10 0 59555  30462.000000  0   -4788403.504   2895571.417  -4025824.042
10 0 59555  30582.000000  0   -5090924.756   3310219.212  -3261533.587
10 0 59555  30702.000000  0   -5297962.269   3671654.432  -2440015.156
10 0 59555  30822.000000  0   -5406818.700   3971821.901  -1575640.818
10 0 59555  30942.000000  0   -5416646.199   4203700.679   -683568.385
10 0 59555  31062.000000  0   -5328450.850   4361466.453    220528.109
10 0 59555  31182.000000  0   -5145059.779   4440632.588   1120741.115
10 0 59555  31302.000000  0   -4871049.838   4438163.619   2001219.103
10 0 59555  31422.000000  0   -4512640.842   4352559.387   2846454.611
10 0 59555  31542.000000  0   -4077556.008   4183908.821   3641565.057
10 0 59555  31662.000000  0   -3574853.581   3933910.567   4372560.735
10 0 59555  31782.000000  0   -3014734.764   3605860.652   5026593.995
10 0 59555  31902.000000  0   -2408331.785   3204607.719   5592185.641
10 0 59555  32022.000000  0   -1767481.540   2736477.516   6059423.821
10 0 59555  32142.000000  0   -1104489.927   2209168.328   6420132.827
10 0 59555  32262.000000  0    -431892.996   1631619.593   6668008.369
99
